{
    "links": {
        "self": "http://www.neowsapp.com/rest/v1/neo/3634782?api_key=iIulBulltgU6a56xZRHN4H3l9WmuAYTsLGpBGhQ2"
    },
    "id": "3634782",
    "neo_reference_id": "3634782",
    "name": "(2013 GT79)",
    "designation": "2013 GT79",
    "nasa_jpl_url": "http://ssd.jpl.nasa.gov/sbdb.cgi?sstr=3634782",
    "absolute_magnitude_h": 24.0,
    "estimated_diameter": {
        "kilometers": {
            "estimated_diameter_min": 0.0421264611,
            "estimated_diameter_max": 0.0941976306
        },
        "meters": {
            "estimated_diameter_min": 42.1264610556,
            "estimated_diameter_max": 94.1976305719
        },
        "miles": {
            "estimated_diameter_min": 0.0261761612,
            "estimated_diameter_max": 0.0585316759
        },
        "feet": {
            "estimated_diameter_min": 138.2101784897,
            "estimated_diameter_max": 309.0473542854
        }
    },
    "is_potentially_hazardous_asteroid": false,
    "close_approach_data": [
        {
            "close_approach_date": "2013-04-21",
            "close_approach_date_full": "2013-Apr-21 04:46",
            "epoch_date_close_approach": 1366519560000,
            "relative_velocity": {
                "kilometers_per_second": "15.2536918717",
                "kilometers_per_hour": "54913.2907379429",
                "miles_per_hour": "34120.9833476957"
            },
            "miss_distance": {
                "astronomical": "0.0330491941",
                "lunar": "12.8561365049",
                "kilometers": "4944089.042576567",
                "miles": "3072114.4752159446"
            },
            "orbiting_body": "Earth"
        },
        {
            "close_approach_date": "2075-08-23",
            "close_approach_date_full": "2075-Aug-23 20:23",
            "epoch_date_close_approach": 3333817380000,
            "relative_velocity": {
                "kilometers_per_second": "15.6755782978",
                "kilometers_per_hour": "56432.0818721394",
                "miles_per_hour": "35064.7010943857"
            },
            "miss_distance": {
                "astronomical": "0.0538445537",
                "lunar": "20.9455313893",
                "kilometers": "8055030.544620619",
                "miles": "5005163.8878937822"
            },
            "orbiting_body": "Earth"
        }
    ],
    "orbital_data": {
        "orbit_id": "7",
        "orbit_determination_date": "2017-04-06 08:46:08",
        "first_observation_date": "2013-04-12",
        "last_observation_date": "2013-04-22",
        "data_arc_in_days": 10,
        "observations_used": 33,
        "orbit_uncertainty": "8",
        "minimum_orbit_intersection": ".00504784",
        "jupiter_tisserand_invariant": "3.380",
        "epoch_osculation": "2456396.5",
        "eccentricity": ".6185626660386281",
        "semi_major_axis": "2.208378085349485",
        "inclination": "1.570515882841385",
        "ascending_node_longitude": "224.6129636774637",
        "orbital_period": "1198.694658510858",
        "perihelion_distance": ".8423578492544264",
        "perihelion_argument": "44.38656222680394",
        "aphelion_distance": "3.574398321444543",
        "perihelion_time": "2456443.115117839652",
        "mean_anomaly": "346.0002359206953",
        "mean_motion": ".3003266907414345",
        "equinox": "J2000",
        "orbit_class": {
            "orbit_class_type": "APO",
            "orbit_class_description": "Near-Earth asteroid orbits which cross the Earth’s orbit similar to that of 1862 Apollo",
            "orbit_class_range": "a (semi-major axis) > 1.0 AU; q (perihelion) < 1.017 AU"
        }
    },
    "is_sentry_object": false
}